{"type":"FeatureCollection","features":[{"type":"Feature","geometry":{"type":"MultiPolygon","coordinates":[[[[-70.42044,41.60959],[-70.42005,41.60906],[-70.41837,41.60824],[-70.41481,41.60879],[-70.41173,41.60835],[-70.40847,41.60835],[-70.40636,41.60793],[-70.40336,41.60778],[-70.40239,41.60792],[-70.40159,41.6075],[-70.40168,41.60723],[-70.40193,41.60742],[-70.4032,41.60755],[-70.41018,41.60769],[-70.4176,41.60651],[-70.42076,41.60623],[-70.42696,41.60475],[-70.42835,41.60507],[-70.43164,41.60632],[-70.43337,41.60786],[-70.43384,41.60862],[-70.43312,41.60873],[-70.43105,41.60734],[-70.42927,41.60693],[-70.42846,41.60718],[-70.42677,41.60844],[-70.42371,41.60863],[-70.42355,41.60852],[-70.42459,41.60837],[-70.42486,41.60738],[-70.42543,41.60696],[-70.42784,41.60651],[-70.42764,41.60585],[-70.4262,41.60589],[-70.42575,41.60616],[-70.42452,41.60594],[-70.42391,41.60616],[-70.42329,41.60754],[-70.42325,41.60779],[-70.42378,41.60825],[-70.42259,41.60872],[-70.42118,41.60963],[-70.42016,41.60977],[-70.42044,41.60959]]],[[[-70.40756,41.62827],[-70.40762,41.62753],[-70.40836,41.62774],[-70.40874,41.62753],[-70.40899,41.6263],[-70.40943,41.62562],[-70.40884,41.6237],[-70.40842,41.62352],[-70.40805,41.62357],[-70.40779,41.62413],[-70.40759,41.62356],[-70.4071,41.62337],[-70.40684,41.62352],[-70.40775,41.62436],[-70.40725,41.6255],[-70.40799,41.62573],[-70.40785,41.62591],[-70.40504,41.62584],[-70.4008,41.62671],[-70.40029,41.62613],[-70.39976,41.62657],[-70.40057,41.62694],[-70.4003,41.62718],[-70.4001,41.62691],[-70.39966,41.6269],[-70.39929,41.62719],[-70.39952,41.62739],[-70.40007,41.6273],[-70.40027,41.62753],[-70.39877,41.62757],[-70.39833,41.62714],[-70.39816,41.62688],[-70.39866,41.62687],[-70.39886,41.62637],[-70.39868,41.62614],[-70.39908,41.62597],[-70.39804,41.6252],[-70.39708,41.62543],[-70.39721,41.6256],[-70.3981,41.6256],[-70.39822,41.62579],[-70.39699,41.62637],[-70.39708,41.62666],[-70.39647,41.62557],[-70.39656,41.62476],[-70.39716,41.6239],[-70.39696,41.62338],[-70.39731,41.6225],[-70.39709,41.62215],[-70.39754,41.62086],[-70.39932,41.62113],[-70.39996,41.62074],[-70.40105,41.62078],[-70.4022,41.62053],[-70.40338,41.62062],[-70.40521,41.62139],[-70.40625,41.62109],[-70.40633,41.6206],[-70.40657,41.62058],[-70.40741,41.62204],[-70.40835,41.62259],[-70.40904,41.62259],[-70.40851,41.62213],[-70.40781,41.6204],[-70.40629,41.61998],[-70.40601,41.61965],[-70.40605,41.61887],[-70.40687,41.61746],[-70.40613,41.61573],[-70.40639,41.61417],[-70.40523,41.61209],[-70.40561,41.61188],[-70.406,41.61208],[-70.40683,41.61194],[-70.4086,41.61464],[-70.40914,41.61503],[-70.4097,41.61489],[-70.40847,41.61387],[-70.40789,41.61275],[-70.40808,41.61204],[-70.40772,41.61167],[-70.40557,41.61155],[-70.40372,41.61093],[-70.40249,41.61016],[-70.40194,41.60929],[-70.40286,41.60837],[-70.40313,41.60859],[-70.40652,41.60862],[-70.40808,41.60904],[-70.40902,41.60981],[-70.40989,41.60987],[-70.41017,41.61012],[-70.40993,41.61031],[-70.41031,41.61052],[-70.41099,41.61028],[-70.41098,41.6099],[-70.41062,41.60963],[-70.41084,41.60944],[-70.41339,41.60932],[-70.41432,41.60968],[-70.41714,41.60927],[-70.41894,41.60928],[-70.41983,41.60984],[-70.41988,41.61024],[-70.42047,41.61041],[-70.42186,41.61178],[-70.42379,41.61463],[-70.42427,41.61585],[-70.42433,41.61883],[-70.42407,41.61907],[-70.42262,41.61921],[-70.42143,41.62038],[-70.42114,41.62178],[-70.42046,41.62228],[-70.42019,41.62232],[-70.42023,41.6218],[-70.41965,41.62122],[-70.41868,41.62108],[-70.41763,41.62141],[-70.41709,41.62202],[-70.41652,41.62359],[-70.41529,41.62499],[-70.4147,41.62678],[-70.41379,41.62651],[-70.41248,41.62724],[-70.41236,41.62761],[-70.41104,41.62854],[-70.41043,41.62859],[-70.41033,41.62899],[-70.40989,41.62921],[-70.40826,41.62895],[-70.40756,41.62827]]],[[[-70.39937,41.63136],[-70.39928,41.63159],[-70.39894,41.63172],[-70.39883,41.63132],[-70.39937,41.63136]]],[[[-70.40049,41.63354],[-70.40026,41.63319],[-70.4004,41.63254],[-70.39972,41.63171],[-70.39976,41.63116],[-70.40011,41.63089],[-70.40075,41.63136],[-70.40226,41.6335],[-70.40193,41.63372],[-70.40194,41.63406],[-70.40167,41.63398],[-70.40151,41.63342],[-70.40105,41.63331],[-70.40049,41.63354]]],[[[-70.40219,41.63511],[-70.4026,41.63502],[-70.40275,41.63467],[-70.40254,41.63427],[-70.40213,41.63417],[-70.40312,41.63385],[-70.40381,41.63476],[-70.40349,41.63582],[-70.40255,41.63557],[-70.40217,41.63583],[-70.40219,41.63511]]],[[[-70.36039,41.63686],[-70.36044,41.63737],[-70.36028,41.63683],[-70.36039,41.63686]]],[[[-70.36252,41.63865],[-70.36223,41.63868],[-70.36203,41.63845],[-70.36231,41.63847],[-70.36252,41.63865]]],[[[-70.40467,41.63996],[-70.40391,41.64018],[-70.40381,41.6401],[-70.40452,41.63982],[-70.40467,41.63996]]],[[[-70.38328,41.74009],[-70.37568,41.73937],[-70.37474,41.73893],[-70.37331,41.73874],[-70.36775,41.73822],[-70.36369,41.7382],[-70.36339,41.73812],[-70.36423,41.73803],[-70.36251,41.73772],[-70.34689,41.73679],[-70.34458,41.73684],[-70.34066,41.73641],[-70.31972,41.73573],[-70.31998,41.73604],[-70.31867,41.73604],[-70.31721,41.73587],[-70.31813,41.73569],[-70.31438,41.73554],[-70.30823,41.73545],[-70.30664,41.73573],[-70.30571,41.73546],[-70.30331,41.73534],[-70.30043,41.73557],[-70.29508,41.7354],[-70.28874,41.73422],[-70.2913,41.73414],[-70.29173,41.73434],[-70.29415,41.73448],[-70.29597,41.73486],[-70.29596,41.73522],[-70.29848,41.73488],[-70.29517,41.73455],[-70.29031,41.73363],[-70.28959,41.73361],[-70.28821,41.73416],[-70.28569,41.73343],[-70.28517,41.73283],[-70.28902,41.73367],[-70.28915,41.73347],[-70.28974,41.73342],[-70.28396,41.73078],[-70.28136,41.72995],[-70.2789,41.72868],[-70.27861,41.7279],[-70.27785,41.72701],[-70.27897,41.72735],[-70.27955,41.72845],[-70.28024,41.72894],[-70.28125,41.72914],[-70.28254,41.7297],[-70.28265,41.72997],[-70.28347,41.7299],[-70.28323,41.73018],[-70.2839,41.73045],[-70.28402,41.72945],[-70.28473,41.73068],[-70.28592,41.73072],[-70.28783,41.73197],[-70.29029,41.73252],[-70.2887,41.73155],[-70.28828,41.73161],[-70.28681,41.73103],[-70.28613,41.73023],[-70.28469,41.72925],[-70.2829,41.72858],[-70.28219,41.72868],[-70.28012,41.7278],[-70.28003,41.7281],[-70.27916,41.72728],[-70.27646,41.72635],[-70.27474,41.72599],[-70.27288,41.72476],[-70.27288,41.7239],[-70.27328,41.72367],[-70.27516,41.72343],[-70.28039,41.72196],[-70.28118,41.72207],[-70.28284,41.72244],[-70.28391,41.72354],[-70.2852,41.72401],[-70.28553,41.72499],[-70.2861,41.72539],[-70.28607,41.72738],[-70.2872,41.7275],[-70.28829,41.72653],[-70.28943,41.72598],[-70.28967,41.72617],[-70.28928,41.72652],[-70.28947,41.72695],[-70.28901,41.72755],[-70.28928,41.72769],[-70.28958,41.72749],[-70.28957,41.7278],[-70.28973,41.72746],[-70.28925,41.72746],[-70.28975,41.72677],[-70.28953,41.72663],[-70.29004,41.72657],[-70.29006,41.72612],[-70.28987,41.72567],[-70.28968,41.7258],[-70.28949,41.72551],[-70.28905,41.72558],[-70.29069,41.72444],[-70.29117,41.72437],[-70.29096,41.72463],[-70.29116,41.72486],[-70.29145,41.72471],[-70.29176,41.72404],[-70.29107,41.72409],[-70.29117,41.72279],[-70.29147,41.72257],[-70.29173,41.72137],[-70.29227,41.7209],[-70.29473,41.72132],[-70.29488,41.72166],[-70.29703,41.72184],[-70.29657,41.72208],[-70.29638,41.72192],[-70.2956,41.72293],[-70.29566,41.72346],[-70.29673,41.72477],[-70.29675,41.72418],[-70.29638,41.724],[-70.29598,41.72299],[-70.29648,41.72241],[-70.29698,41.72232],[-70.29729,41.72253],[-70.29719,41.72223],[-70.29802,41.72217],[-70.2987,41.72238],[-70.29844,41.72264],[-70.29869,41.72283],[-70.29864,41.72254],[-70.2992,41.72265],[-70.2995,41.72342],[-70.30138,41.72461],[-70.30167,41.72525],[-70.30282,41.72544],[-70.30351,41.72498],[-70.30423,41.72513],[-70.30439,41.72451],[-70.30497,41.72433],[-70.30517,41.72373],[-70.30399,41.72486],[-70.30354,41.72472],[-70.30282,41.72519],[-70.30223,41.72508],[-70.30142,41.72391],[-70.30054,41.72327],[-70.30004,41.72255],[-70.30016,41.72217],[-70.29887,41.72147],[-70.29944,41.72118],[-70.3013,41.72121],[-70.30124,41.72098],[-70.2999,41.72081],[-70.29867,41.72124],[-70.29744,41.72138],[-70.2967,41.72069],[-70.29697,41.72045],[-70.29901,41.72006],[-70.29975,41.72033],[-70.30187,41.72029],[-70.30475,41.7206],[-70.3066,41.72164],[-70.30722,41.72239],[-70.30798,41.72426],[-70.30879,41.7252],[-70.30928,41.72664],[-70.30972,41.72653],[-70.3117,41.72731],[-70.31276,41.7274],[-70.31441,41.72796],[-70.31544,41.7274],[-70.31548,41.72712],[-70.31648,41.72672],[-70.31771,41.72704],[-70.31852,41.72693],[-70.31833,41.72747],[-70.31855,41.7277],[-70.31904,41.72705],[-70.31892,41.72682],[-70.31778,41.72659],[-70.32119,41.72573],[-70.32159,41.72581],[-70.32122,41.72607],[-70.32198,41.72636],[-70.32181,41.72533],[-70.32327,41.72521],[-70.32801,41.72595],[-70.32845,41.72651],[-70.32831,41.72677],[-70.32779,41.72653],[-70.32718,41.72686],[-70.3264,41.72693],[-70.32647,41.72732],[-70.32778,41.72675],[-70.32869,41.72692],[-70.32928,41.72729],[-70.32904,41.7273],[-70.32939,41.72798],[-70.32972,41.72759],[-70.33007,41.72804],[-70.33095,41.72846],[-70.33112,41.72915],[-70.33136,41.72897],[-70.33292,41.72895],[-70.33518,41.72783],[-70.3365,41.72804],[-70.33739,41.72887],[-70.33873,41.72808],[-70.33978,41.72799],[-70.34026,41.72751],[-70.34091,41.72913],[-70.34118,41.72872],[-70.34068,41.72811],[-70.34066,41.72743],[-70.34031,41.72719],[-70.33982,41.72737],[-70.3395,41.72784],[-70.33861,41.72775],[-70.3375,41.72842],[-70.33669,41.72787],[-70.33489,41.72759],[-70.33279,41.72853],[-70.3317,41.72866],[-70.32974,41.72653],[-70.32921,41.72627],[-70.32885,41.72537],[-70.3325,41.72486],[-70.33579,41.72522],[-70.33724,41.72505],[-70.33861,41.72452],[-70.34129,41.72395],[-70.34377,41.72413],[-70.34587,41.72463],[-70.34599,41.72604],[-70.34686,41.72714],[-70.34646,41.72746],[-70.34705,41.7273],[-70.3471,41.72708],[-70.34621,41.72587],[-70.34616,41.72456],[-70.34406,41.72398],[-70.34721,41.72352],[-70.34865,41.72385],[-70.35001,41.72453],[-70.35023,41.72638],[-70.35125,41.72833],[-70.35396,41.72979],[-70.35504,41.73013],[-70.3565,41.73002],[-70.35773,41.72945],[-70.36036,41.72729],[-70.36073,41.72658],[-70.36144,41.72645],[-70.36485,41.72719],[-70.3672,41.72593],[-70.37009,41.72806],[-70.37081,41.72814],[-70.3728,41.72753],[-70.37208,41.72885],[-70.37252,41.7293],[-70.37439,41.72974],[-70.37525,41.72871],[-70.3754,41.72812],[-70.37416,41.72951],[-70.37268,41.72905],[-70.37249,41.72881],[-70.3731,41.72725],[-70.37273,41.72546],[-70.3732,41.72503],[-70.37395,41.72518],[-70.37444,41.72574],[-70.37549,41.72608],[-70.37651,41.7272],[-70.37773,41.72632],[-70.37834,41.72638],[-70.37837,41.72677],[-70.37729,41.72715],[-70.3771,41.72753],[-70.37761,41.72801],[-70.37894,41.72859],[-70.3794,41.72852],[-70.37968,41.7282],[-70.3795,41.7272],[-70.38017,41.72652],[-70.38062,41.72658],[-70.38086,41.72754],[-70.38187,41.72764],[-70.38165,41.7274],[-70.38089,41.72728],[-70.38081,41.72651],[-70.38005,41.72637],[-70.37932,41.7271],[-70.37944,41.72824],[-70.37884,41.72835],[-70.37737,41.72766],[-70.37735,41.7274],[-70.37847,41.7269],[-70.3786,41.72639],[-70.37753,41.72619],[-70.37651,41.72693],[-70.37595,41.72648],[-70.37578,41.72596],[-70.3761,41.72561],[-70.37556,41.72586],[-70.37484,41.7257],[-70.3743,41.72508],[-70.37349,41.72472],[-70.3718,41.72507],[-70.37224,41.72535],[-70.37208,41.72714],[-70.37051,41.72784],[-70.36981,41.72727],[-70.36906,41.72614],[-70.36823,41.72571],[-70.36688,41.72566],[-70.36442,41.72629],[-70.36301,41.72576],[-70.36112,41.72541],[-70.35857,41.72617],[-70.35777,41.72667],[-70.35623,41.72839],[-70.3557,41.72863],[-70.35514,41.72842],[-70.35434,41.72738],[-70.35402,41.72611],[-70.35325,41.72481],[-70.35053,41.72172],[-70.34881,41.72048],[-70.34795,41.72099],[-70.34752,41.721],[-70.34545,41.72052],[-70.3449,41.72023],[-70.34512,41.72001],[-70.34644,41.71931],[-70.34733,41.71957],[-70.34685,41.71897],[-70.34957,41.71728],[-70.35089,41.71673],[-70.35198,41.71693],[-70.35384,41.718],[-70.35674,41.71773],[-70.35935,41.71808],[-70.36039,41.71767],[-70.36068,41.71825],[-70.36138,41.71831],[-70.36152,41.71871],[-70.36224,41.71926],[-70.36239,41.71909],[-70.36167,41.71868],[-70.36155,41.71822],[-70.36082,41.71817],[-70.36076,41.71751],[-70.36037,41.71743],[-70.36093,41.71626],[-70.36136,41.71596],[-70.36223,41.71602],[-70.36339,41.71646],[-70.36418,41.71632],[-70.36451,41.71706],[-70.36536,41.71664],[-70.36599,41.71692],[-70.36613,41.71741],[-70.36745,41.71719],[-70.3679,41.71757],[-70.36759,41.71709],[-70.36702,41.71703],[-70.36647,41.71726],[-70.36545,41.7165],[-70.36462,41.71689],[-70.36448,41.71611],[-70.36331,41.71626],[-70.36217,41.71564],[-70.36052,41.716],[-70.36,41.7172],[-70.35927,41.71765],[-70.35655,41.71727],[-70.35356,41.71751],[-70.35227,41.71645],[-70.35278,41.71552],[-70.35208,41.71424],[-70.35257,41.71341],[-70.35375,41.71346],[-70.35515,41.71451],[-70.35582,41.7153],[-70.35602,41.71629],[-70.35675,41.71683],[-70.35734,41.71687],[-70.35792,41.7166],[-70.35847,41.71543],[-70.35841,41.7146],[-70.35787,41.71397],[-70.3561,41.71322],[-70.35469,41.71204],[-70.35462,41.71178],[-70.35543,41.71075],[-70.35516,41.70997],[-70.35469,41.70974],[-70.35434,41.71001],[-70.35482,41.71007],[-70.35507,41.71071],[-70.35436,41.71153],[-70.35433,41.71219],[-70.35624,41.71371],[-70.35727,41.71413],[-70.35796,41.71486],[-70.3579,41.71599],[-70.35725,41.71657],[-70.35687,41.71653],[-70.35652,41.71614],[-70.35584,41.71452],[-70.35428,41.7133],[-70.35286,41.71294],[-70.35156,41.71373],[-70.35091,41.71349],[-70.35121,41.71288],[-70.35077,41.71361],[-70.35154,41.71397],[-70.35207,41.71608],[-70.35031,41.71589],[-70.34816,41.71629],[-70.34758,41.71559],[-70.34763,41.71528],[-70.34927,41.7144],[-70.34823,41.71482],[-70.34713,41.71475],[-70.34799,41.71496],[-70.34734,41.71533],[-70.34778,41.71652],[-70.34495,41.71885],[-70.34403,41.71862],[-70.34468,41.71687],[-70.34395,41.71668],[-70.34379,41.71686],[-70.34404,41.71765],[-70.34384,41.71857],[-70.34356,41.71863],[-70.34222,41.7184],[-70.34219,41.71744],[-70.34178,41.71767],[-70.34148,41.71756],[-70.34099,41.7178],[-70.33957,41.71795],[-70.33868,41.71769],[-70.33851,41.71721],[-70.33882,41.71612],[-70.33835,41.71575],[-70.33797,41.71577],[-70.33758,41.71629],[-70.33672,41.71592],[-70.33635,41.716],[-70.33578,41.71541],[-70.33527,41.71545],[-70.33516,41.7162],[-70.33626,41.71699],[-70.33619,41.71727],[-70.33584,41.71733],[-70.3348,41.71697],[-70.33419,41.71653],[-70.33388,41.7153],[-70.33332,41.71454],[-70.33189,41.71379],[-70.33028,41.71337],[-70.33038,41.71317],[-70.33324,41.71276],[-70.33556,41.71417],[-70.33685,41.71399],[-70.33799,41.71439],[-70.33718,41.71386],[-70.338,41.71357],[-70.33945,41.71405],[-70.33961,41.71484],[-70.33991,41.71414],[-70.34126,41.71479],[-70.34182,41.71521],[-70.34205,41.71595],[-70.34235,41.71592],[-70.34219,41.71525],[-70.34512,41.71633],[-70.34439,41.71553],[-70.34488,41.71506],[-70.34386,41.71537],[-70.34163,41.71438],[-70.34071,41.71349],[-70.34116,41.71329],[-70.34175,41.71223],[-70.34302,41.71145],[-70.34375,41.71156],[-70.34425,41.71138],[-70.34494,41.71025],[-70.34626,41.70996],[-70.34757,41.70938],[-70.34804,41.70888],[-70.3481,41.70773],[-70.34836,41.70741],[-70.34928,41.70746],[-70.3499,41.70703],[-70.34958,41.70648],[-70.35006,41.70596],[-70.34926,41.70655],[-70.34975,41.70687],[-70.34969,41.70706],[-70.34897,41.70731],[-70.34766,41.70569],[-70.34698,41.70541],[-70.34695,41.70515],[-70.34745,41.70477],[-70.34842,41.7049],[-70.34847,41.70475],[-70.3472,41.70474],[-70.34676,41.70513],[-70.34686,41.70558],[-70.34663,41.70571],[-70.3461,41.70535],[-70.34607,41.7049],[-70.347,41.70465],[-70.34727,41.70432],[-70.34619,41.70467],[-70.34584,41.70523],[-70.3465,41.70579],[-70.34733,41.70574],[-70.34818,41.70666],[-70.34822,41.70694],[-70.34762,41.70758],[-70.34784,41.70845],[-70.34686,41.70938],[-70.34512,41.70981],[-70.34423,41.70955],[-70.34399,41.70864],[-70.34501,41.70714],[-70.34378,41.70633],[-70.34174,41.70641],[-70.34179,41.70551],[-70.34106,41.7049],[-70.34134,41.70455],[-70.34115,41.70424],[-70.34083,41.70488],[-70.34158,41.70564],[-70.3416,41.70654],[-70.34358,41.70652],[-70.34469,41.70715],[-70.3438,41.70847],[-70.34379,41.70932],[-70.34333,41.70918],[-70.34131,41.70723],[-70.34064,41.70689],[-70.3398,41.70702],[-70.33892,41.70767],[-70.33856,41.70827],[-70.33696,41.70777],[-70.33637,41.70732],[-70.33601,41.70658],[-70.33593,41.70619],[-70.33642,41.70604],[-70.33593,41.70499],[-70.33629,41.70487],[-70.33536,41.70473],[-70.33598,41.70579],[-70.33569,41.70659],[-70.33621,41.70752],[-70.3368,41.7079],[-70.33672,41.70856],[-70.33489,41.70764],[-70.33499,41.70688],[-70.33467,41.70666],[-70.33487,41.70697],[-70.33464,41.70749],[-70.33492,41.70792],[-70.33435,41.70857],[-70.33389,41.70871],[-70.3335,41.70828],[-70.33312,41.70705],[-70.33011,41.70662],[-70.33046,41.70632],[-70.33091,41.70654],[-70.33171,41.70653],[-70.33205,41.70614],[-70.33161,41.70612],[-70.33193,41.70622],[-70.33165,41.70641],[-70.33029,41.70626],[-70.32982,41.70657],[-70.32989,41.70629],[-70.32931,41.70639],[-70.3291,41.70587],[-70.32847,41.70557],[-70.32957,41.70677],[-70.33052,41.70713],[-70.33081,41.70686],[-70.33118,41.70691],[-70.33031,41.70748],[-70.32964,41.70762],[-70.32934,41.7083],[-70.32909,41.708],[-70.32943,41.70751],[-70.32928,41.70707],[-70.32822,41.70763],[-70.32726,41.70684],[-70.32753,41.70757],[-70.32717,41.70818],[-70.32764,41.70808],[-70.3284,41.70829],[-70.32946,41.70881],[-70.32916,41.70999],[-70.32871,41.71029],[-70.32819,41.71138],[-70.32841,41.71163],[-70.32801,41.71185],[-70.32602,41.71154],[-70.32266,41.71003],[-70.32262,41.70975],[-70.32199,41.70975],[-70.32038,41.70924],[-70.31813,41.70922],[-70.31595,41.71009],[-70.31413,41.70974],[-70.31392,41.70943],[-70.31391,41.7099],[-70.30907,41.71023],[-70.30834,41.7106],[-70.30533,41.71031],[-70.30401,41.70972],[-70.30329,41.70843],[-70.30381,41.70803],[-70.30304,41.70795],[-70.30364,41.7075],[-70.30385,41.70774],[-70.30423,41.70746],[-70.30387,41.70718],[-70.3029,41.70768],[-70.30251,41.707],[-70.30325,41.70689],[-70.30266,41.70659],[-70.30249,41.70689],[-70.3023,41.70675],[-70.30215,41.70617],[-70.30252,41.70565],[-70.30193,41.70565],[-70.30161,41.70517],[-70.30167,41.70478],[-70.30232,41.70415],[-70.30211,41.70359],[-70.3022,41.70413],[-70.30191,41.70404],[-70.30184,41.70447],[-70.30132,41.70482],[-70.30153,41.70518],[-70.30124,41.70511],[-70.30121,41.70528],[-70.30187,41.70594],[-70.30223,41.70728],[-70.30191,41.70742],[-70.30208,41.70823],[-70.30293,41.70839],[-70.30298,41.70883],[-70.30151,41.70856],[-70.30094,41.70758],[-70.30007,41.7072],[-70.2997,41.70598],[-70.30008,41.70508],[-70.29942,41.70487],[-70.29942,41.70544],[-70.2986,41.70643],[-70.29915,41.70689],[-70.29932,41.7074],[-70.30032,41.70792],[-70.30008,41.70801],[-70.30036,41.70902],[-70.29747,41.7095],[-70.29489,41.71056],[-70.29276,41.71068],[-70.29115,41.71033],[-70.29038,41.71057],[-70.28598,41.71014],[-70.28504,41.70974],[-70.28478,41.70987],[-70.28254,41.7097],[-70.28168,41.70994],[-70.28078,41.70967],[-70.28055,41.70993],[-70.2798,41.70998],[-70.2794,41.7098],[-70.27778,41.71005],[-70.27532,41.71096],[-70.27423,41.71169],[-70.27398,41.7112],[-70.27323,41.71119],[-70.27393,41.71137],[-70.27333,41.71208],[-70.27212,41.71183],[-70.27043,41.71222],[-70.26976,41.71308],[-70.26831,41.71376],[-70.26784,41.71373],[-70.26742,41.7132],[-70.26685,41.71396],[-70.26568,41.71396],[-70.26523,41.71372],[-70.26443,41.7139],[-70.26334,41.71369],[-70.26224,41.71308],[-70.26127,41.71193],[-70.26153,41.71143],[-70.26176,41.7112],[-70.26271,41.71116],[-70.2624,41.71087],[-70.26284,41.71047],[-70.26284,41.70955],[-70.26317,41.70909],[-70.26366,41.70908],[-70.26407,41.70871],[-70.26497,41.70949],[-70.26493,41.709],[-70.26528,41.70866],[-70.26489,41.70862],[-70.26476,41.70888],[-70.26417,41.70811],[-70.26466,41.70771],[-70.26516,41.7079],[-70.26522,41.70773],[-70.26498,41.70736],[-70.26465,41.70757],[-70.26443,41.70745],[-70.26434,41.70772],[-70.26401,41.70779],[-70.26272,41.70726],[-70.26218,41.70729],[-70.2615,41.70662],[-70.26068,41.70508],[-70.25963,41.69228],[-70.2737,41.64939],[-70.27492,41.65102],[-70.27477,41.6513],[-70.27505,41.65185],[-70.27588,41.65174],[-70.27606,41.65114],[-70.27726,41.65094],[-70.2775,41.6498],[-70.27849,41.64996],[-70.27883,41.65106],[-70.27968,41.65084],[-70.27941,41.64795],[-70.27896,41.64781],[-70.27841,41.64848],[-70.2773,41.64919],[-70.27629,41.64914],[-70.27591,41.64783],[-70.27697,41.64601],[-70.27679,41.6455],[-70.27561,41.64501],[-70.27405,41.64518],[-70.27333,41.64483],[-70.27366,41.64389],[-70.27348,41.64362],[-70.27387,41.64324],[-70.27525,41.64337],[-70.27639,41.64319],[-70.27744,41.64215],[-70.27838,41.64241],[-70.2786,41.64296],[-70.27948,41.64273],[-70.27871,41.64286],[-70.27858,41.64243],[-70.27802,41.6421],[-70.2768,41.64191],[-70.27747,41.64106],[-70.27764,41.63903],[-70.2775,41.6385],[-70.27694,41.63817],[-70.27715,41.63789],[-70.27647,41.63631],[-70.27541,41.63541],[-70.27214,41.63361],[-70.27359,41.63129],[-70.27334,41.63184],[-70.27858,41.63446],[-70.28069,41.63521],[-70.28157,41.63534],[-70.28197,41.63504],[-70.28668,41.63557],[-70.28799,41.63542],[-70.28862,41.63472],[-70.28873,41.6351],[-70.28933,41.63531],[-70.29291,41.63521],[-70.29272,41.63455],[-70.29314,41.63489],[-70.29509,41.63449],[-70.29785,41.63344],[-70.29937,41.63252],[-70.3003,41.6309],[-70.30054,41.62938],[-70.30112,41.62944],[-70.3071,41.62842],[-70.31136,41.62746],[-70.31299,41.62698],[-70.3151,41.62586],[-70.31706,41.62529],[-70.3175,41.62581],[-70.31838,41.62598],[-70.31893,41.6265],[-70.32033,41.62904],[-70.32163,41.63047],[-70.32255,41.63103],[-70.32252,41.6313],[-70.32219,41.63144],[-70.3213,41.63057],[-70.3197,41.63019],[-70.3194,41.62979],[-70.31832,41.62925],[-70.31809,41.6289],[-70.31857,41.62886],[-70.31874,41.62837],[-70.31797,41.6279],[-70.31722,41.62785],[-70.31736,41.62726],[-70.31726,41.62711],[-70.31707,41.6279],[-70.31761,41.62796],[-70.31703,41.62843],[-70.317,41.62874],[-70.31829,41.62961],[-70.31683,41.62985],[-70.31496,41.63078],[-70.3137,41.6309],[-70.31292,41.63074],[-70.31197,41.62911],[-70.31106,41.62826],[-70.30956,41.62835],[-70.31075,41.6288],[-70.31174,41.63027],[-70.31074,41.63099],[-70.3112,41.63163],[-70.31057,41.63307],[-70.31151,41.63212],[-70.31199,41.63092],[-70.31429,41.63163],[-70.3143,41.63193],[-70.31404,41.632],[-70.3148,41.63257],[-70.31479,41.63292],[-70.31449,41.63291],[-70.31453,41.63319],[-70.31398,41.6335],[-70.31294,41.63351],[-70.3127,41.63372],[-70.31304,41.63432],[-70.31419,41.63478],[-70.31386,41.6353],[-70.3144,41.63541],[-70.31501,41.63477],[-70.31635,41.63429],[-70.31632,41.63398],[-70.3151,41.63329],[-70.31529,41.63267],[-70.31663,41.63239],[-70.31788,41.63266],[-70.31837,41.63121],[-70.31904,41.63128],[-70.32037,41.63098],[-70.3208,41.63153],[-70.32058,41.63166],[-70.32016,41.63152],[-70.32008,41.63182],[-70.32054,41.63191],[-70.32076,41.63248],[-70.32149,41.6327],[-70.32258,41.63359],[-70.32224,41.63184],[-70.32282,41.63151],[-70.32271,41.63116],[-70.32306,41.63065],[-70.327,41.6331],[-70.3317,41.63476],[-70.33906,41.63621],[-70.34401,41.63613],[-70.34816,41.63545],[-70.35426,41.63397],[-70.35674,41.63318],[-70.35886,41.63216],[-70.36394,41.62847],[-70.36506,41.62732],[-70.36524,41.62679],[-70.36505,41.62673],[-70.36471,41.62466],[-70.36632,41.62548],[-70.36604,41.62612],[-70.36635,41.62762],[-70.36543,41.6279],[-70.36579,41.6284],[-70.36567,41.62869],[-70.36456,41.62932],[-70.3634,41.6306],[-70.36131,41.63143],[-70.36036,41.63249],[-70.35887,41.63275],[-70.3578,41.63365],[-70.35732,41.63367],[-70.35711,41.63409],[-70.35599,41.63405],[-70.35524,41.63484],[-70.35435,41.63499],[-70.35283,41.63567],[-70.35216,41.63569],[-70.3505,41.63658],[-70.34994,41.63723],[-70.34958,41.63714],[-70.34924,41.63661],[-70.34842,41.63637],[-70.34515,41.63706],[-70.34436,41.63751],[-70.34452,41.63781],[-70.34493,41.63764],[-70.34558,41.63775],[-70.3463,41.63736],[-70.34701,41.63743],[-70.34748,41.63708],[-70.34796,41.63745],[-70.34792,41.63774],[-70.34602,41.63848],[-70.34565,41.63901],[-70.34475,41.63902],[-70.34554,41.63886],[-70.34555,41.63874],[-70.34434,41.63899],[-70.34438,41.63926],[-70.34323,41.63908],[-70.34201,41.63921],[-70.34131,41.63899],[-70.3412,41.63914],[-70.33878,41.63926],[-70.33803,41.63924],[-70.33788,41.63894],[-70.33662,41.63973],[-70.33614,41.63953],[-70.33555,41.64054],[-70.33619,41.64054],[-70.33648,41.63997],[-70.33731,41.63975],[-70.33772,41.63985],[-70.33749,41.63939],[-70.3384,41.6395],[-70.33805,41.64012],[-70.33845,41.64063],[-70.33826,41.64111],[-70.3385,41.6419],[-70.33898,41.64241],[-70.33811,41.64228],[-70.33809,41.64274],[-70.33709,41.64406],[-70.33642,41.64558],[-70.33585,41.64603],[-70.33567,41.64666],[-70.33508,41.64688],[-70.3344,41.64826],[-70.33431,41.64786],[-70.33387,41.64756],[-70.33338,41.64766],[-70.3333,41.64788],[-70.3337,41.64779],[-70.33425,41.64843],[-70.33452,41.64832],[-70.33524,41.64703],[-70.33584,41.64686],[-70.33668,41.64618],[-70.33709,41.64475],[-70.33838,41.6432],[-70.33958,41.64276],[-70.33893,41.64099],[-70.33942,41.64012],[-70.33859,41.64016],[-70.33866,41.63983],[-70.33992,41.63944],[-70.34285,41.63964],[-70.34407,41.63937],[-70.34396,41.63955],[-70.34426,41.63956],[-70.34569,41.63922],[-70.34638,41.63872],[-70.34833,41.63801],[-70.34791,41.63861],[-70.34838,41.63902],[-70.34904,41.6385],[-70.34905,41.63916],[-70.3486,41.63944],[-70.3466,41.63957],[-70.34637,41.63985],[-70.34674,41.64017],[-70.34706,41.63961],[-70.3493,41.63971],[-70.34972,41.63943],[-70.34987,41.6387],[-70.34948,41.63829],[-70.34863,41.63851],[-70.34823,41.63841],[-70.34856,41.63807],[-70.34834,41.63719],[-70.34894,41.63734],[-70.34927,41.63774],[-70.35107,41.63763],[-70.35164,41.63674],[-70.35433,41.63565],[-70.35502,41.63558],[-70.35681,41.63451],[-70.35734,41.63462],[-70.35772,41.63501],[-70.35778,41.63589],[-70.35809,41.6363],[-70.3596,41.63672],[-70.35988,41.63771],[-70.36122,41.63868],[-70.36094,41.63919],[-70.36054,41.63921],[-70.36041,41.6397],[-70.35929,41.63995],[-70.35904,41.63955],[-70.3583,41.63974],[-70.35828,41.6395],[-70.35802,41.63951],[-70.35774,41.63999],[-70.35726,41.63985],[-70.35728,41.64021],[-70.35759,41.64016],[-70.35852,41.64067],[-70.35914,41.64059],[-70.3598,41.64096],[-70.35985,41.6407],[-70.36009,41.6408],[-70.3604,41.64056],[-70.36033,41.64015],[-70.36059,41.64017],[-70.36146,41.63878],[-70.36235,41.63938],[-70.36313,41.6396],[-70.36335,41.6403],[-70.36293,41.6405],[-70.3631,41.6416],[-70.36225,41.64168],[-70.36211,41.64209],[-70.3613,41.64199],[-70.35998,41.64258],[-70.35897,41.64265],[-70.3587,41.64293],[-70.35955,41.64275],[-70.35947,41.64345],[-70.35902,41.64364],[-70.35881,41.64336],[-70.35816,41.64339],[-70.35771,41.64369],[-70.35786,41.64409],[-70.35898,41.64385],[-70.35998,41.64488],[-70.36218,41.64516],[-70.36232,41.64536],[-70.362,41.64572],[-70.36225,41.64605],[-70.36304,41.64542],[-70.36315,41.64476],[-70.3628,41.64448],[-70.36276,41.64376],[-70.36338,41.64329],[-70.36317,41.64296],[-70.36389,41.64239],[-70.36437,41.64231],[-70.36445,41.64167],[-70.36494,41.64165],[-70.36585,41.64251],[-70.36606,41.64368],[-70.36691,41.64411],[-70.3669,41.64472],[-70.36928,41.64493],[-70.37061,41.64564],[-70.37097,41.64562],[-70.37133,41.64554],[-70.37074,41.64557],[-70.36898,41.64471],[-70.36876,41.64432],[-70.36832,41.64464],[-70.36713,41.64457],[-70.36725,41.64405],[-70.36596,41.64292],[-70.36625,41.64233],[-70.36427,41.64063],[-70.36471,41.63966],[-70.36384,41.6394],[-70.36277,41.63844],[-70.36189,41.63801],[-70.36125,41.6381],[-70.36054,41.6366],[-70.35924,41.63566],[-70.35847,41.63595],[-70.3581,41.63508],[-70.35815,41.63459],[-70.35895,41.63395],[-70.36375,41.63107],[-70.36489,41.63002],[-70.36711,41.62914],[-70.36757,41.62873],[-70.37056,41.62865],[-70.37108,41.62839],[-70.37237,41.62711],[-70.37287,41.62604],[-70.37359,41.6256],[-70.37304,41.62533],[-70.37223,41.6241],[-70.36901,41.62267],[-70.36936,41.62212],[-70.36756,41.62228],[-70.36654,41.62317],[-70.36667,41.62378],[-70.36627,41.62426],[-70.36526,41.62416],[-70.36363,41.62335],[-70.3652,41.62244],[-70.36662,41.62123],[-70.36776,41.61979],[-70.36781,41.61895],[-70.36932,41.61641],[-70.37115,41.61506],[-70.37274,41.6143],[-70.3799,41.61125],[-70.38524,41.60982],[-70.38726,41.6089],[-70.39502,41.60718],[-70.40065,41.60651],[-70.40066,41.60704],[-70.4001,41.60762],[-70.39989,41.60849],[-70.39993,41.60913],[-70.40041,41.60966],[-70.39734,41.61037],[-70.39676,41.6109],[-70.39708,41.61156],[-70.39624,41.61363],[-70.3962,41.61463],[-70.39783,41.6175],[-70.39775,41.61786],[-70.39666,41.61734],[-70.39645,41.61623],[-70.39454,41.61587],[-70.39296,41.61441],[-70.39227,41.61435],[-70.39247,41.61389],[-70.39191,41.61361],[-70.39154,41.61277],[-70.39057,41.6124],[-70.39074,41.61216],[-70.38954,41.60966],[-70.38893,41.60985],[-70.38926,41.61039],[-70.38881,41.61087],[-70.38873,41.61139],[-70.38955,41.6129],[-70.39179,41.61457],[-70.39203,41.61455],[-70.39243,41.6151],[-70.39263,41.6148],[-70.3924,41.61547],[-70.39134,41.61679],[-70.39109,41.61768],[-70.39205,41.62121],[-70.39303,41.62206],[-70.39417,41.62157],[-70.39579,41.62187],[-70.39639,41.62278],[-70.39511,41.62445],[-70.39364,41.62477],[-70.39348,41.62576],[-70.39384,41.62633],[-70.39518,41.62713],[-70.39644,41.62838],[-70.39686,41.6294],[-70.39792,41.63072],[-70.39716,41.6309],[-70.39726,41.63155],[-70.39809,41.63181],[-70.39912,41.63247],[-70.3991,41.63278],[-70.40014,41.63317],[-70.40023,41.63395],[-70.40092,41.63456],[-70.40179,41.63425],[-70.40223,41.63451],[-70.40215,41.63496],[-70.40128,41.63519],[-70.40084,41.63555],[-70.40123,41.63733],[-70.40077,41.6378],[-70.40285,41.63794],[-70.40264,41.63613],[-70.40313,41.63596],[-70.40517,41.63646],[-70.40603,41.63719],[-70.40569,41.63818],[-70.40534,41.63837],[-70.40496,41.63777],[-70.40408,41.63756],[-70.40423,41.63796],[-70.40496,41.63823],[-70.40501,41.63883],[-70.404,41.63908],[-70.40341,41.6396],[-70.40376,41.64053],[-70.40502,41.64054],[-70.40556,41.64116],[-70.40556,41.64173],[-70.40628,41.64284],[-70.40495,41.64445],[-70.40493,41.6451],[-70.40424,41.64578],[-70.40446,41.64604],[-70.40273,41.64576],[-70.40273,41.64549],[-70.4022,41.64558],[-70.40235,41.64528],[-70.4021,41.64549],[-70.40179,41.64533],[-70.40182,41.64612],[-70.40094,41.64618],[-70.40112,41.64723],[-70.40136,41.64735],[-70.40134,41.64703],[-70.40211,41.64668],[-70.40259,41.6473],[-70.40225,41.64752],[-70.40232,41.64767],[-70.40275,41.6473],[-70.40249,41.64695],[-70.40272,41.6463],[-70.40499,41.64644],[-70.40523,41.64658],[-70.40508,41.6468],[-70.40416,41.64685],[-70.40386,41.64721],[-70.40404,41.64766],[-70.40475,41.6478],[-70.40497,41.64875],[-70.40481,41.6493],[-70.40516,41.64956],[-70.40605,41.64956],[-70.40635,41.6493],[-70.40642,41.64798],[-70.40739,41.64779],[-70.40838,41.64723],[-70.40873,41.64739],[-70.40852,41.64828],[-70.40949,41.64893],[-70.40974,41.64871],[-70.40917,41.64857],[-70.40971,41.64836],[-70.4101,41.64846],[-70.4105,41.6492],[-70.41106,41.64882],[-70.41061,41.64887],[-70.41038,41.64846],[-70.40981,41.64816],[-70.40893,41.64842],[-70.40859,41.648],[-70.40894,41.64716],[-70.40845,41.64695],[-70.40797,41.64703],[-70.40821,41.64669],[-70.40753,41.64737],[-70.4074,41.64711],[-70.40712,41.64714],[-70.40703,41.64768],[-70.40589,41.64774],[-70.40609,41.64684],[-70.40669,41.64708],[-70.40716,41.64657],[-70.40631,41.64643],[-70.40615,41.64586],[-70.40654,41.64557],[-70.40668,41.64501],[-70.40734,41.64453],[-70.40903,41.64587],[-70.41007,41.64596],[-70.41043,41.64619],[-70.41109,41.64606],[-70.41139,41.64638],[-70.41155,41.64617],[-70.41132,41.64586],[-70.41081,41.64602],[-70.40947,41.64565],[-70.40955,41.64515],[-70.41128,41.64528],[-70.41175,41.64513],[-70.41278,41.64347],[-70.41321,41.64319],[-70.41322,41.64189],[-70.41428,41.64104],[-70.41441,41.64033],[-70.41359,41.63989],[-70.41261,41.63979],[-70.41111,41.64028],[-70.41116,41.64163],[-70.41039,41.64238],[-70.41043,41.64374],[-70.4088,41.64432],[-70.40789,41.64383],[-70.40747,41.64268],[-70.40642,41.64207],[-70.40654,41.64074],[-70.40538,41.63969],[-70.40631,41.63929],[-70.4067,41.63954],[-70.40705,41.63941],[-70.40681,41.63895],[-70.40651,41.639],[-70.40641,41.63808],[-70.40732,41.63672],[-70.40923,41.63668],[-70.41149,41.63607],[-70.41272,41.63468],[-70.41283,41.63378],[-70.41258,41.63301],[-70.41195,41.63249],[-70.41168,41.63258],[-70.41051,41.63155],[-70.41031,41.63029],[-70.41175,41.63069],[-70.41352,41.63067],[-70.41356,41.62856],[-70.41482,41.62813],[-70.41625,41.62711],[-70.41767,41.62679],[-70.41983,41.62712],[-70.42388,41.62578],[-70.42483,41.62419],[-70.42425,41.62315],[-70.42495,41.62264],[-70.42579,41.62246],[-70.42582,41.62275],[-70.42597,41.62222],[-70.42659,41.62205],[-70.42898,41.62202],[-70.43089,41.62167],[-70.43187,41.62141],[-70.43298,41.62078],[-70.43298,41.61996],[-70.432,41.61888],[-70.43179,41.61732],[-70.43215,41.61673],[-70.43297,41.61661],[-70.43361,41.61619],[-70.43379,41.61629],[-70.43438,41.61585],[-70.43469,41.61357],[-70.43322,41.61251],[-70.42995,41.61123],[-70.4298,41.61066],[-70.43204,41.61049],[-70.43315,41.61011],[-70.4344,41.60952],[-70.43587,41.60818],[-70.43665,41.60718],[-70.4367,41.60617],[-70.43721,41.60505],[-70.44042,41.60207],[-70.44293,41.59878],[-70.44473,41.5954],[-70.4448,41.59474],[-70.44438,41.59443],[-70.44472,41.59272],[-70.44617,41.59062],[-70.44655,41.59067],[-70.44702,41.5902],[-70.44927,41.58915],[-70.45112,41.58938],[-70.45121,41.58887],[-70.45179,41.58856],[-70.45234,41.5895],[-70.45262,41.58814],[-70.45317,41.58764],[-70.45363,41.58762],[-70.45485,41.58857],[-70.45534,41.59114],[-70.4547,41.59315],[-70.45452,41.59501],[-70.45381,41.59537],[-70.45339,41.59513],[-70.45266,41.5954],[-70.45276,41.59637],[-70.4531,41.59678],[-70.45241,41.59761],[-70.45254,41.59902],[-70.45306,41.59945],[-70.45255,41.60056],[-70.45333,41.60087],[-70.45357,41.60156],[-70.45405,41.60174],[-70.45411,41.60296],[-70.4546,41.60301],[-70.45481,41.60325],[-70.4554,41.6035],[-70.4557,41.60327],[-70.4554,41.60297],[-70.45523,41.60322],[-70.45492,41.60321],[-70.45453,41.60278],[-70.45448,41.60145],[-70.45405,41.60119],[-70.45476,41.60011],[-70.45415,41.59901],[-70.45492,41.59831],[-70.45302,41.59765],[-70.4544,41.59729],[-70.45413,41.59645],[-70.45511,41.59581],[-70.45708,41.59737],[-70.45773,41.59761],[-70.45883,41.59758],[-70.45974,41.59796],[-70.46001,41.59775],[-70.45988,41.59712],[-70.45928,41.59715],[-70.45896,41.59749],[-70.45864,41.5974],[-70.4598,41.59663],[-70.46179,41.59616],[-70.46257,41.59644],[-70.46342,41.59723],[-70.46265,41.59807],[-70.46058,41.59885],[-70.46051,41.59921],[-70.46194,41.60081],[-70.4622,41.60184],[-70.46155,41.60291],[-70.46159,41.60392],[-70.46125,41.60433],[-70.46117,41.60557],[-70.46059,41.60672],[-70.45821,41.6064],[-70.45727,41.60658],[-70.4569,41.60714],[-70.45686,41.608],[-70.45602,41.60859],[-70.45618,41.60922],[-70.45593,41.61049],[-70.45331,41.61057],[-70.45254,41.61123],[-70.45232,41.61195],[-70.45266,41.61472],[-70.45239,41.61514],[-70.45206,41.61455],[-70.45134,41.61492],[-70.45035,41.6164],[-70.45037,41.61709],[-70.44996,41.61777],[-70.45039,41.61866],[-70.44946,41.61878],[-70.44917,41.61907],[-70.44922,41.61955],[-70.44968,41.61958],[-70.44943,41.62034],[-70.44974,41.62071],[-70.44897,41.62095],[-70.44895,41.62137],[-70.44861,41.62149],[-70.44906,41.62237],[-70.44874,41.6226],[-70.44884,41.62295],[-70.44924,41.62312],[-70.44896,41.62335],[-70.45062,41.62527],[-70.45057,41.62579],[-70.45105,41.6265],[-70.451,41.62704],[-70.45127,41.62729],[-70.45096,41.62806],[-70.45189,41.62956],[-70.45142,41.63044],[-70.45199,41.63123],[-70.4517,41.63159],[-70.4519,41.63202],[-70.45252,41.63256],[-70.45268,41.63485],[-70.45351,41.63494],[-70.45596,41.63434],[-70.45643,41.635],[-70.45973,41.63377],[-70.46457,41.63261],[-70.4676,41.63428],[-70.4663,41.63708],[-70.45848,41.63747],[-70.45436,41.63919],[-70.45256,41.63875],[-70.45319,41.63986],[-70.45324,41.64169],[-70.45171,41.64248],[-70.44651,41.65034],[-70.45106,41.65691],[-70.45874,41.66404],[-70.38876,41.73434],[-70.38328,41.74009]]],[[[-70.33965,41.70793],[-70.34025,41.70735],[-70.34075,41.7075],[-70.3426,41.70932],[-70.34336,41.70974],[-70.34477,41.71006],[-70.34463,41.71033],[-70.34223,41.70957],[-70.34024,41.70801],[-70.33965,41.70793]]],[[[-70.34088,41.71326],[-70.33855,41.71307],[-70.33789,41.71256],[-70.33893,41.71071],[-70.33964,41.70805],[-70.34019,41.70818],[-70.34108,41.70911],[-70.34101,41.70928],[-70.3415,41.70927],[-70.342,41.70979],[-70.34469,41.71049],[-70.34396,41.71141],[-70.34311,41.71126],[-70.34164,41.71211],[-70.34107,41.71258],[-70.34088,41.71326]]],[[[-70.33406,41.7132],[-70.33376,41.71279],[-70.33463,41.71271],[-70.33663,41.71284],[-70.33745,41.7131],[-70.33691,41.71354],[-70.33581,41.71345],[-70.3352,41.71372],[-70.33406,41.7132]]],[[[-70.34256,41.71939],[-70.34172,41.71879],[-70.3419,41.71919],[-70.34158,41.71916],[-70.34133,41.71892],[-70.3416,41.71878],[-70.34132,41.71857],[-70.3449,41.71904],[-70.34363,41.71953],[-70.34256,41.71939]]],[[[-70.35197,41.72815],[-70.3524,41.72819],[-70.35141,41.72754],[-70.35102,41.72686],[-70.352,41.72493],[-70.35269,41.72533],[-70.3534,41.72704],[-70.35322,41.72798],[-70.353,41.72842],[-70.35276,41.72843],[-70.353,41.72863],[-70.35197,41.72815]]],[[[-70.35923,41.72744],[-70.35805,41.72862],[-70.35742,41.72894],[-70.35765,41.72839],[-70.35751,41.72759],[-70.35788,41.72718],[-70.35931,41.72676],[-70.35923,41.72744]]],[[[-70.35439,41.72943],[-70.35541,41.72927],[-70.35716,41.72932],[-70.35586,41.72979],[-70.35439,41.72943]]],[[[-70.31486,41.63233],[-70.31441,41.63125],[-70.31532,41.63115],[-70.31721,41.63003],[-70.31786,41.63026],[-70.31772,41.62996],[-70.31802,41.62988],[-70.31814,41.63017],[-70.31913,41.63048],[-70.31808,41.63091],[-70.31764,41.63082],[-70.3175,41.63115],[-70.31777,41.63125],[-70.3172,41.63151],[-70.31721,41.63179],[-70.31627,41.63187],[-70.31555,41.63234],[-70.31486,41.63233]]],[[[-70.27429,41.64762],[-70.27475,41.64816],[-70.27397,41.64856],[-70.27429,41.64762]]],[[[-70.30282,41.70803],[-70.30225,41.70785],[-70.30262,41.70758],[-70.30279,41.70768],[-70.30282,41.70803]]],[[[-70.33483,41.71159],[-70.33244,41.71066],[-70.33088,41.71033],[-70.33088,41.70796],[-70.33153,41.7074],[-70.33206,41.70721],[-70.33269,41.70745],[-70.3331,41.70818],[-70.33297,41.70845],[-70.33343,41.70881],[-70.33437,41.70903],[-70.33444,41.70927],[-70.33456,41.70884],[-70.33535,41.70816],[-70.33572,41.70818],[-70.33644,41.70872],[-70.33692,41.70867],[-70.33717,41.70807],[-70.33844,41.70853],[-70.33808,41.71044],[-70.33751,41.71128],[-70.33615,41.71164],[-70.33483,41.71159]]],[[[-70.3314,41.71106],[-70.33284,41.71173],[-70.33224,41.71182],[-70.3304,41.71181],[-70.3314,41.71106]]],[[[-70.3318,41.71679],[-70.32866,41.7156],[-70.32704,41.71439],[-70.32754,41.71403],[-70.32852,41.71393],[-70.3313,41.71427],[-70.33226,41.71458],[-70.33285,41.71499],[-70.33276,41.71574],[-70.33289,41.71599],[-70.33326,41.71581],[-70.3335,41.71699],[-70.33334,41.71715],[-70.3318,41.71679]]],[[[-70.33004,41.718],[-70.32814,41.71703],[-70.32737,41.71643],[-70.32723,41.71602],[-70.33083,41.71732],[-70.33167,41.718],[-70.33128,41.71817],[-70.33004,41.718]]],[[[-70.31234,41.71754],[-70.31204,41.71764],[-70.31176,41.71746],[-70.31189,41.71744],[-70.31234,41.71754]]],[[[-70.31174,41.7171],[-70.31178,41.71663],[-70.31223,41.71652],[-70.3166,41.71662],[-70.31684,41.71686],[-70.31942,41.71738],[-70.3199,41.71861],[-70.31753,41.71908],[-70.31648,41.71908],[-70.3144,41.71846],[-70.31232,41.71719],[-70.31174,41.7171]]],[[[-70.31889,41.72185],[-70.32226,41.72203],[-70.32298,41.72238],[-70.32316,41.72311],[-70.32231,41.72372],[-70.32082,41.72386],[-70.31953,41.72367],[-70.31856,41.72229],[-70.31889,41.72185]]],[[[-70.31524,41.72269],[-70.31661,41.72417],[-70.31553,41.72457],[-70.31323,41.72386],[-70.31233,41.72248],[-70.31409,41.72243],[-70.31524,41.72269]]],[[[-70.32276,41.72383],[-70.32358,41.72339],[-70.32435,41.72383],[-70.32393,41.72401],[-70.32276,41.72383]]],[[[-70.3127,41.72394],[-70.31472,41.72453],[-70.31519,41.72475],[-70.31315,41.72513],[-70.31259,41.72436],[-70.3127,41.72394]]],[[[-70.31498,41.73588],[-70.31545,41.73574],[-70.31607,41.73595],[-70.31531,41.73596],[-70.31498,41.73588]]],[[[-70.31375,41.73593],[-70.31347,41.73605],[-70.31304,41.73598],[-70.31343,41.73573],[-70.31375,41.73593]]]]},"properties":{"name":"Barnstable"}},{"type":"Feature","geometry":{"type":"MultiPolygon","coordinates":[[[[-70.18045,41.65418],[-70.18073,41.65403],[-70.18071,41.65355],[-70.182,41.65388],[-70.18417,41.6529],[-70.18284,41.65371],[-70.18283,41.65421],[-70.18055,41.65435],[-70.18045,41.65418]]],[[[-70.19549,41.65221],[-70.19554,41.65327],[-70.19504,41.65391],[-70.19362,41.65498],[-70.19159,41.65567],[-70.19163,41.65505],[-70.19111,41.65451],[-70.1917,41.65316],[-70.19368,41.65249],[-70.19549,41.65221]]],[[[-70.13157,41.67873],[-70.13183,41.67911],[-70.13137,41.67879],[-70.13157,41.67873]]],[[[-70.13084,41.68122],[-70.13172,41.6815],[-70.13178,41.68167],[-70.131,41.68155],[-70.13084,41.68122]]],[[[-70.13158,41.75959],[-70.13095,41.75956],[-70.13232,41.7601],[-70.13198,41.76051],[-70.13166,41.76001],[-70.13102,41.75998],[-70.13074,41.75968],[-70.12909,41.7599],[-70.12861,41.76022],[-70.12604,41.75985],[-70.1248,41.76037],[-70.12311,41.76043],[-70.12336,41.75929],[-70.12314,41.75835],[-70.1223,41.75878],[-70.12394,41.75729],[-70.12504,41.75715],[-70.1259,41.75741],[-70.12665,41.75723],[-70.1284,41.75556],[-70.12961,41.7552],[-70.12997,41.75451],[-70.13086,41.75435],[-70.13118,41.75376],[-70.13088,41.7534],[-70.13057,41.7533],[-70.13004,41.75357],[-70.1302,41.75306],[-70.1293,41.75285],[-70.12968,41.75248],[-70.13077,41.75306],[-70.13131,41.75301],[-70.13127,41.75213],[-70.13078,41.75225],[-70.13058,41.7521],[-70.1307,41.75155],[-70.1311,41.75145],[-70.1311,41.75187],[-70.13173,41.75131],[-70.1321,41.75163],[-70.13276,41.75147],[-70.13307,41.75178],[-70.13346,41.75112],[-70.13284,41.75132],[-70.13274,41.75064],[-70.13353,41.75095],[-70.1342,41.75058],[-70.13386,41.75007],[-70.13429,41.75005],[-70.13451,41.75042],[-70.13476,41.7498],[-70.13501,41.74976],[-70.1353,41.75017],[-70.1361,41.74948],[-70.13709,41.74936],[-70.13719,41.7492],[-70.13685,41.74902],[-70.13773,41.74882],[-70.13744,41.74848],[-70.1376,41.74829],[-70.13884,41.74833],[-70.13912,41.74866],[-70.14001,41.74784],[-70.14067,41.74811],[-70.14101,41.74793],[-70.14109,41.74747],[-70.14165,41.74766],[-70.14237,41.74716],[-70.1428,41.74734],[-70.14295,41.74707],[-70.14417,41.74683],[-70.1455,41.74538],[-70.1451,41.74478],[-70.14583,41.74449],[-70.14598,41.74411],[-70.14582,41.7439],[-70.1454,41.74389],[-70.13385,41.70616],[-70.11755,41.65522],[-70.11931,41.65528],[-70.12317,41.65487],[-70.13726,41.6513],[-70.14113,41.65063],[-70.14198,41.65078],[-70.14328,41.65053],[-70.1459,41.65068],[-70.14807,41.65046],[-70.15349,41.65123],[-70.15382,41.6515],[-70.15593,41.65167],[-70.15658,41.65149],[-70.15628,41.65058],[-70.1569,41.65128],[-70.15738,41.65141],[-70.15731,41.65211],[-70.15635,41.65244],[-70.1563,41.6529],[-70.1557,41.65344],[-70.1557,41.6539],[-70.15511,41.65435],[-70.15535,41.65524],[-70.15451,41.65519],[-70.15435,41.65574],[-70.15357,41.6559],[-70.15377,41.65643],[-70.15455,41.65669],[-70.15372,41.6573],[-70.15404,41.65776],[-70.15297,41.65775],[-70.15291,41.65814],[-70.15233,41.65837],[-70.15253,41.65893],[-70.15199,41.6587],[-70.15165,41.65884],[-70.15187,41.6602],[-70.15237,41.66026],[-70.1523,41.66051],[-70.15182,41.66072],[-70.15168,41.66109],[-70.15094,41.66119],[-70.15074,41.66196],[-70.15019,41.66254],[-70.1492,41.66287],[-70.14921,41.66322],[-70.14843,41.6639],[-70.14837,41.6653],[-70.14764,41.66537],[-70.1469,41.66583],[-70.14679,41.6664],[-70.14642,41.66663],[-70.14624,41.668],[-70.14506,41.66936],[-70.14445,41.66934],[-70.14402,41.66966],[-70.14449,41.67036],[-70.14364,41.67045],[-70.14318,41.67105],[-70.14252,41.67103],[-70.1423,41.6714],[-70.14278,41.67174],[-70.14148,41.67246],[-70.13974,41.6738],[-70.13956,41.67436],[-70.13754,41.67564],[-70.13595,41.67599],[-70.13318,41.67613],[-70.1325,41.67567],[-70.1326,41.67541],[-70.13297,41.67547],[-70.13298,41.67449],[-70.13212,41.67433],[-70.13131,41.67437],[-70.12982,41.67504],[-70.12963,41.67546],[-70.13006,41.67601],[-70.13011,41.67697],[-70.12919,41.67848],[-70.12928,41.67888],[-70.12796,41.6793],[-70.12678,41.68113],[-70.12722,41.68183],[-70.12835,41.6824],[-70.12842,41.68363],[-70.12869,41.68404],[-70.12963,41.68445],[-70.13044,41.68448],[-70.13112,41.68398],[-70.13255,41.68416],[-70.13385,41.68392],[-70.13463,41.68337],[-70.13441,41.6825],[-70.13479,41.68166],[-70.13519,41.68152],[-70.13602,41.6818],[-70.13622,41.68133],[-70.13495,41.67981],[-70.1348,41.67886],[-70.13597,41.67894],[-70.13648,41.67865],[-70.13771,41.67867],[-70.13808,41.67782],[-70.13853,41.67753],[-70.13823,41.67641],[-70.13946,41.67516],[-70.14012,41.67383],[-70.143,41.67203],[-70.14311,41.67156],[-70.14265,41.67126],[-70.14329,41.67134],[-70.14373,41.67063],[-70.14471,41.67048],[-70.14477,41.67013],[-70.14432,41.66972],[-70.14459,41.66949],[-70.14531,41.66962],[-70.14533,41.66915],[-70.14649,41.66804],[-70.1465,41.66765],[-70.14711,41.66753],[-70.1466,41.66732],[-70.14664,41.66713],[-70.14704,41.66718],[-70.14662,41.66675],[-70.14705,41.66647],[-70.14709,41.66607],[-70.14852,41.66541],[-70.14872,41.66382],[-70.14939,41.66338],[-70.14951,41.66285],[-70.15051,41.66259],[-70.1512,41.66125],[-70.15183,41.66127],[-70.15256,41.6605],[-70.15274,41.66014],[-70.15209,41.66009],[-70.15229,41.6598],[-70.15194,41.659],[-70.15268,41.65913],[-70.1527,41.65844],[-70.15323,41.65865],[-70.1535,41.65852],[-70.15314,41.658],[-70.15435,41.65787],[-70.15414,41.65746],[-70.15483,41.65664],[-70.15375,41.6561],[-70.15465,41.65605],[-70.15468,41.65548],[-70.15548,41.6555],[-70.15574,41.65526],[-70.15567,41.65451],[-70.15608,41.65421],[-70.15666,41.65294],[-70.15733,41.65249],[-70.15785,41.65086],[-70.15791,41.65135],[-70.16014,41.65174],[-70.16018,41.6516],[-70.16333,41.65196],[-70.16496,41.65192],[-70.16859,41.65134],[-70.16921,41.65143],[-70.16939,41.65115],[-70.17036,41.6513],[-70.18178,41.64995],[-70.19015,41.64882],[-70.19249,41.64829],[-70.19595,41.64821],[-70.19583,41.64858],[-70.19503,41.64852],[-70.19469,41.64874],[-70.19377,41.65046],[-70.19387,41.65126],[-70.18917,41.65334],[-70.18832,41.65333],[-70.18796,41.65263],[-70.18821,41.6515],[-70.18783,41.65158],[-70.18765,41.65111],[-70.18826,41.6505],[-70.18715,41.65021],[-70.18576,41.65019],[-70.18525,41.65043],[-70.18495,41.65108],[-70.18522,41.65204],[-70.18479,41.65263],[-70.18381,41.65275],[-70.18214,41.65361],[-70.18055,41.65341],[-70.18058,41.65399],[-70.1799,41.65396],[-70.18017,41.65431],[-70.17853,41.65388],[-70.17851,41.65326],[-70.17809,41.65295],[-70.17738,41.65325],[-70.17457,41.65248],[-70.17359,41.65247],[-70.17248,41.65277],[-70.17015,41.65446],[-70.16973,41.65432],[-70.16978,41.65415],[-70.1685,41.65415],[-70.1683,41.6539],[-70.1668,41.65345],[-70.16613,41.6536],[-70.16538,41.65325],[-70.16497,41.65338],[-70.16484,41.65397],[-70.16557,41.65466],[-70.16628,41.6547],[-70.16676,41.65443],[-70.16673,41.65388],[-70.16749,41.65388],[-70.16845,41.65443],[-70.16954,41.65425],[-70.16998,41.65461],[-70.16997,41.65496],[-70.17069,41.65438],[-70.17163,41.65463],[-70.1723,41.65451],[-70.17247,41.65549],[-70.17272,41.65478],[-70.1725,41.65435],[-70.17144,41.65425],[-70.17205,41.65397],[-70.17288,41.65297],[-70.17403,41.65285],[-70.17466,41.65309],[-70.17515,41.65365],[-70.17703,41.65414],[-70.17689,41.65482],[-70.17715,41.65482],[-70.17747,41.65412],[-70.17818,41.65427],[-70.17791,41.6554],[-70.1787,41.65441],[-70.17917,41.65493],[-70.17897,41.65568],[-70.17947,41.65512],[-70.18034,41.6551],[-70.17993,41.65594],[-70.18011,41.65605],[-70.18067,41.65514],[-70.18158,41.65513],[-70.18149,41.65614],[-70.18201,41.65506],[-70.18259,41.65498],[-70.18281,41.65588],[-70.18306,41.65579],[-70.18294,41.65495],[-70.18346,41.65484],[-70.18431,41.65559],[-70.18362,41.65413],[-70.18395,41.65367],[-70.18551,41.65491],[-70.18575,41.65486],[-70.18424,41.65348],[-70.18516,41.65316],[-70.18643,41.65369],[-70.18874,41.65534],[-70.18896,41.65667],[-70.18879,41.65693],[-70.18843,41.65666],[-70.18862,41.65729],[-70.18806,41.65757],[-70.18619,41.65945],[-70.18629,41.66044],[-70.18597,41.66112],[-70.18437,41.66153],[-70.18281,41.66264],[-70.18244,41.66326],[-70.18268,41.66375],[-70.18205,41.66396],[-70.18082,41.66557],[-70.17855,41.66579],[-70.17729,41.66503],[-70.17706,41.6652],[-70.17716,41.66572],[-70.17692,41.66577],[-70.17673,41.66523],[-70.17638,41.66525],[-70.17576,41.6661],[-70.17506,41.66647],[-70.1748,41.66709],[-70.1744,41.6672],[-70.17442,41.66748],[-70.17507,41.667],[-70.17577,41.66736],[-70.17648,41.66696],[-70.17739,41.66681],[-70.17828,41.66725],[-70.17825,41.66802],[-70.1759,41.66883],[-70.17427,41.66985],[-70.17327,41.67007],[-70.17142,41.67147],[-70.17037,41.67264],[-70.16861,41.67273],[-70.16821,41.67154],[-70.16686,41.67092],[-70.16622,41.6698],[-70.16626,41.66913],[-70.16717,41.66934],[-70.1678,41.66907],[-70.16819,41.66847],[-70.16905,41.66819],[-70.16919,41.66775],[-70.16893,41.6669],[-70.16771,41.66739],[-70.16746,41.66811],[-70.16626,41.66791],[-70.16438,41.66858],[-70.16255,41.66834],[-70.16093,41.66856],[-70.16076,41.66862],[-70.16104,41.66875],[-70.16012,41.66898],[-70.15885,41.66971],[-70.15862,41.67065],[-70.15921,41.67252],[-70.16021,41.67385],[-70.15793,41.67518],[-70.15782,41.67582],[-70.15815,41.67598],[-70.15871,41.67583],[-70.16002,41.67421],[-70.16181,41.67361],[-70.16201,41.67285],[-70.16261,41.67238],[-70.16348,41.67211],[-70.16494,41.67206],[-70.16615,41.67152],[-70.16662,41.67153],[-70.16635,41.67252],[-70.16314,41.67356],[-70.16161,41.6753],[-70.16251,41.67619],[-70.16324,41.67602],[-70.16352,41.67566],[-70.16445,41.67571],[-70.16422,41.6759],[-70.16442,41.6763],[-70.16487,41.67561],[-70.16452,41.67552],[-70.16457,41.67513],[-70.16514,41.67485],[-70.16558,41.67553],[-70.16548,41.67643],[-70.16376,41.67763],[-70.16106,41.67868],[-70.16076,41.68041],[-70.1597,41.68033],[-70.15925,41.68128],[-70.15847,41.68105],[-70.15874,41.68176],[-70.15965,41.68188],[-70.15938,41.68199],[-70.15939,41.68235],[-70.15998,41.68292],[-70.15996,41.68352],[-70.15919,41.68402],[-70.15838,41.68531],[-70.15882,41.6856],[-70.16018,41.6858],[-70.15993,41.68685],[-70.16045,41.68759],[-70.16006,41.68864],[-70.16192,41.68947],[-70.16381,41.68846],[-70.1651,41.68888],[-70.1655,41.68939],[-70.16571,41.68926],[-70.16636,41.68983],[-70.16615,41.6903],[-70.16546,41.69071],[-70.1646,41.69034],[-70.1643,41.69048],[-70.16464,41.69062],[-70.16528,41.69175],[-70.16555,41.69144],[-70.1654,41.69097],[-70.16586,41.69088],[-70.16614,41.69041],[-70.1674,41.68984],[-70.16851,41.69098],[-70.16882,41.69212],[-70.16956,41.69298],[-70.16891,41.69359],[-70.16944,41.6936],[-70.1696,41.69413],[-70.16888,41.6943],[-70.16779,41.69561],[-70.1676,41.69662],[-70.16644,41.69829],[-70.16661,41.69917],[-70.16834,41.70105],[-70.16909,41.70132],[-70.16972,41.70117],[-70.1704,41.69977],[-70.17244,41.6982],[-70.17266,41.69895],[-70.17356,41.69958],[-70.17422,41.70073],[-70.17574,41.70125],[-70.17557,41.70293],[-70.17488,41.70437],[-70.17514,41.70539],[-70.17658,41.70638],[-70.18041,41.70738],[-70.17884,41.70905],[-70.17953,41.70928],[-70.1818,41.71075],[-70.18297,41.71218],[-70.18466,41.71288],[-70.18595,41.71278],[-70.19845,41.71852],[-70.19704,41.72158],[-70.20032,41.72365],[-70.2009,41.72366],[-70.20122,41.72407],[-70.20156,41.72399],[-70.20145,41.72416],[-70.20176,41.72437],[-70.20205,41.72421],[-70.20237,41.72437],[-70.20254,41.72404],[-70.20329,41.724],[-70.20313,41.72378],[-70.20376,41.72319],[-70.20514,41.72324],[-70.20594,41.72288],[-70.20595,41.72325],[-70.20649,41.7231],[-70.20642,41.72362],[-70.20745,41.72384],[-70.20827,41.72373],[-70.20804,41.72346],[-70.20837,41.7233],[-70.20858,41.72394],[-70.20903,41.72358],[-70.209,41.72324],[-70.20933,41.72314],[-70.20999,41.72351],[-70.20974,41.724],[-70.21051,41.72364],[-70.21096,41.72369],[-70.21126,41.72406],[-70.21178,41.72369],[-70.21226,41.72405],[-70.21207,41.72447],[-70.21249,41.72456],[-70.21302,41.72418],[-70.21335,41.72323],[-70.21385,41.72389],[-70.21294,41.72447],[-70.213,41.72478],[-70.21367,41.72502],[-70.21411,41.72453],[-70.21487,41.72469],[-70.21534,41.72528],[-70.21607,41.72484],[-70.21677,41.72531],[-70.21723,41.72505],[-70.2174,41.72458],[-70.21839,41.7245],[-70.21826,41.72323],[-70.21769,41.7228],[-70.21691,41.72322],[-70.21696,41.72295],[-70.21746,41.72263],[-70.21876,41.72272],[-70.21971,41.72251],[-70.22058,41.72389],[-70.2201,41.7251],[-70.22093,41.72628],[-70.22177,41.7265],[-70.22249,41.72643],[-70.22343,41.72524],[-70.22419,41.72507],[-70.22699,41.72694],[-70.22752,41.72799],[-70.22727,41.72879],[-70.22638,41.72912],[-70.22609,41.72987],[-70.22505,41.73037],[-70.22637,41.73007],[-70.22666,41.72941],[-70.22751,41.72902],[-70.22798,41.72844],[-70.22853,41.72899],[-70.23083,41.72987],[-70.2318,41.72989],[-70.23294,41.72921],[-70.23327,41.72953],[-70.23272,41.72992],[-70.23291,41.7302],[-70.23345,41.72984],[-70.23345,41.72945],[-70.23299,41.72907],[-70.23358,41.72924],[-70.23398,41.72901],[-70.23364,41.7287],[-70.23324,41.72886],[-70.23325,41.72859],[-70.23355,41.72852],[-70.23329,41.7283],[-70.23428,41.72824],[-70.23385,41.72786],[-70.23348,41.72815],[-70.23351,41.72773],[-70.23459,41.72804],[-70.2341,41.72941],[-70.23413,41.72965],[-70.23453,41.72958],[-70.23525,41.72801],[-70.23341,41.72717],[-70.23407,41.72575],[-70.2359,41.72568],[-70.2389,41.72609],[-70.24014,41.72588],[-70.24109,41.72546],[-70.24138,41.72573],[-70.24119,41.7266],[-70.23705,41.73092],[-70.23503,41.73189],[-70.23396,41.73268],[-70.23362,41.73323],[-70.23045,41.73553],[-70.22735,41.73705],[-70.22689,41.73767],[-70.22608,41.73808],[-70.22597,41.73847],[-70.22492,41.73878],[-70.2245,41.73921],[-70.22133,41.74095],[-70.21693,41.74287],[-70.21379,41.74373],[-70.21289,41.74427],[-70.1984,41.74904],[-70.19224,41.75082],[-70.18868,41.7523],[-70.18861,41.75183],[-70.1878,41.75181],[-70.18685,41.75078],[-70.18438,41.75061],[-70.17948,41.75163],[-70.17285,41.75371],[-70.17164,41.75441],[-70.17038,41.75441],[-70.16778,41.755],[-70.16552,41.75609],[-70.16395,41.75614],[-70.16289,41.75576],[-70.16095,41.75607],[-70.16056,41.75638],[-70.15886,41.75605],[-70.15607,41.7567],[-70.15583,41.75701],[-70.15542,41.75714],[-70.15593,41.7565],[-70.15574,41.75586],[-70.15511,41.75542],[-70.15477,41.75539],[-70.15459,41.75562],[-70.15323,41.75499],[-70.15249,41.75395],[-70.15287,41.75316],[-70.1537,41.75266],[-70.15353,41.75248],[-70.15468,41.75107],[-70.15512,41.74976],[-70.15508,41.74856],[-70.15616,41.74832],[-70.15659,41.74862],[-70.15692,41.74859],[-70.15726,41.74806],[-70.15787,41.74815],[-70.15787,41.74772],[-70.15844,41.7477],[-70.15876,41.74732],[-70.15931,41.74737],[-70.15932,41.7469],[-70.15994,41.74677],[-70.16016,41.74626],[-70.16079,41.74617],[-70.16056,41.74596],[-70.16105,41.74555],[-70.16174,41.74553],[-70.16281,41.74506],[-70.16388,41.74518],[-70.16469,41.7448],[-70.16754,41.74517],[-70.16844,41.74484],[-70.16915,41.74503],[-70.16934,41.7449],[-70.16858,41.74466],[-70.16765,41.74505],[-70.16572,41.74474],[-70.16537,41.74485],[-70.16474,41.7446],[-70.16387,41.74501],[-70.1629,41.74495],[-70.16088,41.74539],[-70.16047,41.7459],[-70.1601,41.74594],[-70.15985,41.74653],[-70.15912,41.74682],[-70.1591,41.74721],[-70.15854,41.74713],[-70.15838,41.74761],[-70.1577,41.74756],[-70.15768,41.74806],[-70.15713,41.74791],[-70.15676,41.74842],[-70.15623,41.74812],[-70.15546,41.74831],[-70.15496,41.74809],[-70.15492,41.74892],[-70.1544,41.74886],[-70.15334,41.74964],[-70.15137,41.75329],[-70.1513,41.75386],[-70.15181,41.75404],[-70.15315,41.75526],[-70.15384,41.75688],[-70.15323,41.75673],[-70.15027,41.75723],[-70.14387,41.75973],[-70.14316,41.7597],[-70.14112,41.76026],[-70.14004,41.75988],[-70.1386,41.75972],[-70.1337,41.76069],[-70.13158,41.75959]]],[[[-70.23234,41.72762],[-70.23248,41.7285],[-70.23191,41.72867],[-70.23198,41.72793],[-70.23234,41.72762]]],[[[-70.1539,41.75692],[-70.15507,41.75834],[-70.15521,41.75868],[-70.1539,41.75692]]],[[[-70.15538,41.75723],[-70.15635,41.75847],[-70.15641,41.75877],[-70.15538,41.75723]]]]},"properties":{"name":"Dennis"}},{"type":"Feature","geometry":{"type":"MultiPolygon","coordinates":[[[[-70.25274,41.63043],[-70.25244,41.63054],[-70.25218,41.63026],[-70.2526,41.63027],[-70.25274,41.63043]]],[[[-70.22811,41.63657],[-70.22904,41.6368],[-70.22892,41.63728],[-70.22811,41.63657]]],[[[-70.25775,41.64708],[-70.25854,41.64751],[-70.25834,41.64792],[-70.25803,41.64789],[-70.25776,41.64745],[-70.25775,41.64708]]],[[[-70.19528,41.6476],[-70.19591,41.64635],[-70.19544,41.64765],[-70.19595,41.64821],[-70.19249,41.64829],[-70.19528,41.6476]]],[[[-70.22666,41.7255],[-70.22468,41.72466],[-70.22329,41.72468],[-70.22255,41.72503],[-70.22167,41.72599],[-70.2209,41.72576],[-70.22069,41.72516],[-70.22103,41.72362],[-70.22074,41.72316],[-70.21979,41.72215],[-70.21849,41.72214],[-70.21888,41.72194],[-70.22021,41.72209],[-70.22037,41.72154],[-70.22093,41.72147],[-70.2205,41.72119],[-70.21986,41.72144],[-70.22002,41.72184],[-70.21842,41.72184],[-70.21802,41.72239],[-70.21731,41.72246],[-70.21663,41.72297],[-70.21678,41.72343],[-70.21721,41.72342],[-70.21766,41.72303],[-70.21816,41.72349],[-70.21804,41.72445],[-70.21724,41.72438],[-70.21687,41.7251],[-70.21608,41.72466],[-70.21534,41.72506],[-70.21509,41.72458],[-70.21415,41.72434],[-70.21359,41.72489],[-70.21315,41.72467],[-70.21401,41.72389],[-70.21333,41.72307],[-70.21279,41.72392],[-70.21284,41.72439],[-70.21249,41.72456],[-70.21207,41.72447],[-70.21226,41.72405],[-70.21178,41.72369],[-70.21126,41.72406],[-70.21096,41.72369],[-70.21051,41.72364],[-70.20974,41.724],[-70.20999,41.72351],[-70.20933,41.72314],[-70.209,41.72324],[-70.20903,41.72358],[-70.20858,41.72394],[-70.20837,41.7233],[-70.20804,41.72346],[-70.20827,41.72373],[-70.20745,41.72384],[-70.20642,41.72362],[-70.20649,41.7231],[-70.20595,41.72325],[-70.20594,41.72288],[-70.20514,41.72324],[-70.20376,41.72319],[-70.20313,41.72378],[-70.20329,41.724],[-70.20254,41.72404],[-70.20237,41.72437],[-70.20205,41.72421],[-70.20176,41.72437],[-70.20145,41.72416],[-70.20156,41.72399],[-70.20122,41.72407],[-70.2009,41.72366],[-70.20032,41.72365],[-70.19704,41.72158],[-70.19845,41.71852],[-70.18595,41.71278],[-70.18466,41.71288],[-70.18297,41.71218],[-70.1818,41.71075],[-70.17953,41.70928],[-70.17884,41.70905],[-70.18041,41.70738],[-70.1817,41.70825],[-70.18206,41.70826],[-70.18315,41.70916],[-70.18386,41.71066],[-70.18491,41.71079],[-70.18667,41.71012],[-70.18806,41.70899],[-70.18833,41.70798],[-70.18955,41.70813],[-70.19021,41.70758],[-70.19,41.70546],[-70.18966,41.70469],[-70.19015,41.70472],[-70.19056,41.70529],[-70.19037,41.7057],[-70.19065,41.70576],[-70.19076,41.70556],[-70.19039,41.70465],[-70.19074,41.70411],[-70.19168,41.70412],[-70.19226,41.70446],[-70.19298,41.70419],[-70.19424,41.70531],[-70.19508,41.70534],[-70.19582,41.70493],[-70.19709,41.70536],[-70.19725,41.70563],[-70.1977,41.70547],[-70.19825,41.70575],[-70.19845,41.7055],[-70.1995,41.70524],[-70.19995,41.70559],[-70.20067,41.70555],[-70.2009,41.70577],[-70.20253,41.70476],[-70.20414,41.70583],[-70.20538,41.70589],[-70.20608,41.7057],[-70.20765,41.70585],[-70.20863,41.70545],[-70.20895,41.70503],[-70.20892,41.70452],[-70.2098,41.70393],[-70.20995,41.70331],[-70.21101,41.70215],[-70.21062,41.70124],[-70.20957,41.70095],[-70.2092,41.7014],[-70.20757,41.70181],[-70.20726,41.70233],[-70.20566,41.70241],[-70.20526,41.70265],[-70.20542,41.70287],[-70.20512,41.70312],[-70.20303,41.70353],[-70.20082,41.70479],[-70.19927,41.70452],[-70.19808,41.70475],[-70.19774,41.70516],[-70.19585,41.70466],[-70.19451,41.70526],[-70.19386,41.70466],[-70.1936,41.70468],[-70.19315,41.70408],[-70.19254,41.70378],[-70.19221,41.70397],[-70.19282,41.70292],[-70.19347,41.70269],[-70.19383,41.70279],[-70.19376,41.703],[-70.19411,41.70291],[-70.1943,41.70263],[-70.1939,41.7026],[-70.19385,41.70235],[-70.19266,41.70268],[-70.19226,41.7034],[-70.19098,41.70394],[-70.19039,41.70359],[-70.18709,41.70291],[-70.18501,41.70317],[-70.18435,41.70354],[-70.18241,41.70346],[-70.18107,41.7028],[-70.18077,41.70216],[-70.18113,41.70195],[-70.18101,41.70154],[-70.1801,41.70121],[-70.17831,41.70129],[-70.17833,41.70015],[-70.17749,41.69985],[-70.17622,41.6999],[-70.17566,41.70017],[-70.1748,41.69999],[-70.17343,41.69866],[-70.17356,41.69805],[-70.17153,41.69702],[-70.17179,41.69636],[-70.17235,41.69603],[-70.17246,41.6955],[-70.17293,41.69562],[-70.17332,41.69659],[-70.17403,41.69704],[-70.17631,41.69722],[-70.17686,41.69698],[-70.17721,41.69604],[-70.1762,41.69499],[-70.17617,41.6946],[-70.17561,41.6942],[-70.1753,41.69346],[-70.17344,41.69388],[-70.1729,41.69435],[-70.17267,41.69525],[-70.17192,41.69516],[-70.17094,41.69549],[-70.1706,41.69417],[-70.1701,41.69413],[-70.16987,41.69376],[-70.17052,41.69326],[-70.16978,41.69299],[-70.1704,41.69294],[-70.17042,41.69268],[-70.16797,41.68926],[-70.16753,41.68895],[-70.16683,41.68894],[-70.16662,41.68837],[-70.16602,41.68817],[-70.16512,41.6874],[-70.16321,41.68721],[-70.16214,41.68764],[-70.16198,41.68698],[-70.16323,41.68708],[-70.16323,41.68658],[-70.16278,41.68656],[-70.16223,41.68584],[-70.16183,41.68596],[-70.16166,41.68651],[-70.16125,41.68586],[-70.15986,41.68478],[-70.16096,41.68405],[-70.16196,41.68386],[-70.16269,41.68346],[-70.16314,41.68243],[-70.16295,41.68131],[-70.16393,41.68072],[-70.165,41.68024],[-70.16715,41.68012],[-70.16706,41.68062],[-70.16748,41.68078],[-70.1676,41.68148],[-70.16783,41.68149],[-70.16785,41.67995],[-70.16829,41.67939],[-70.16859,41.68035],[-70.16952,41.68044],[-70.16966,41.67948],[-70.16941,41.67811],[-70.16952,41.67758],[-70.17011,41.67717],[-70.16997,41.67608],[-70.17133,41.67499],[-70.17204,41.67328],[-70.17367,41.67105],[-70.17437,41.67075],[-70.17529,41.67071],[-70.17658,41.67209],[-70.17716,41.6723],[-70.17867,41.67217],[-70.18022,41.67157],[-70.18084,41.67093],[-70.18089,41.67021],[-70.18141,41.66959],[-70.18161,41.66776],[-70.18251,41.66699],[-70.18426,41.66346],[-70.18511,41.66279],[-70.18617,41.66278],[-70.18606,41.66251],[-70.1874,41.66205],[-70.1886,41.66064],[-70.18901,41.65973],[-70.18941,41.65982],[-70.18916,41.65943],[-70.18941,41.6588],[-70.19108,41.65789],[-70.19154,41.65734],[-70.19325,41.65628],[-70.19442,41.6559],[-70.19672,41.6541],[-70.19769,41.65139],[-70.19864,41.65034],[-70.19896,41.64899],[-70.19821,41.64792],[-70.19806,41.64646],[-70.19751,41.64568],[-70.19746,41.64546],[-70.1978,41.64539],[-70.19742,41.64515],[-70.19745,41.64391],[-70.1978,41.64415],[-70.19858,41.64414],[-70.20692,41.64268],[-70.20914,41.64201],[-70.21383,41.63991],[-70.21742,41.63784],[-70.22051,41.6369],[-70.2207,41.63651],[-70.22035,41.63586],[-70.22115,41.63704],[-70.22109,41.63745],[-70.2202,41.639],[-70.22036,41.6393],[-70.2192,41.63949],[-70.21924,41.63968],[-70.22021,41.63963],[-70.21999,41.64028],[-70.21878,41.64054],[-70.21995,41.6405],[-70.22038,41.64096],[-70.21854,41.64132],[-70.21857,41.64149],[-70.21989,41.64135],[-70.22014,41.64165],[-70.21977,41.64205],[-70.21873,41.64218],[-70.21875,41.64232],[-70.21972,41.64222],[-70.21963,41.6431],[-70.22011,41.64358],[-70.21992,41.64417],[-70.22017,41.64522],[-70.22135,41.64615],[-70.22158,41.64695],[-70.2224,41.64752],[-70.22234,41.64779],[-70.22143,41.64809],[-70.2217,41.64869],[-70.22289,41.64839],[-70.22307,41.6489],[-70.2234,41.64901],[-70.22306,41.64815],[-70.22261,41.64788],[-70.2225,41.6472],[-70.22201,41.64692],[-70.2217,41.64623],[-70.22188,41.64573],[-70.22123,41.64558],[-70.22096,41.64522],[-70.22056,41.64525],[-70.2203,41.64463],[-70.22115,41.64424],[-70.22045,41.64402],[-70.22069,41.64375],[-70.22008,41.64307],[-70.22033,41.64282],[-70.22006,41.6425],[-70.22016,41.64208],[-70.22062,41.64186],[-70.22069,41.64082],[-70.22036,41.64046],[-70.22084,41.63905],[-70.22134,41.63926],[-70.22285,41.63897],[-70.22428,41.6396],[-70.2247,41.63954],[-70.2255,41.63899],[-70.2255,41.63815],[-70.2261,41.63807],[-70.22561,41.63772],[-70.22654,41.63748],[-70.22732,41.63695],[-70.22675,41.63792],[-70.22666,41.63904],[-70.22755,41.64027],[-70.22842,41.64044],[-70.23009,41.63959],[-70.23082,41.63949],[-70.23146,41.63897],[-70.23195,41.63806],[-70.23185,41.63637],[-70.23061,41.63583],[-70.22996,41.63598],[-70.22979,41.63568],[-70.22906,41.63633],[-70.22784,41.63619],[-70.22682,41.63639],[-70.22503,41.63742],[-70.22474,41.63906],[-70.22305,41.6385],[-70.22142,41.63856],[-70.22197,41.63802],[-70.22234,41.63696],[-70.22178,41.63675],[-70.22049,41.6347],[-70.22075,41.63495],[-70.22136,41.63496],[-70.22583,41.63453],[-70.22802,41.63401],[-70.22935,41.63339],[-70.2327,41.63279],[-70.23421,41.63234],[-70.23606,41.63138],[-70.23826,41.631],[-70.24271,41.62966],[-70.24798,41.62735],[-70.25242,41.62446],[-70.25329,41.62312],[-70.25526,41.62136],[-70.25463,41.62141],[-70.25447,41.62107],[-70.25474,41.62087],[-70.25535,41.62107],[-70.25575,41.62097],[-70.25582,41.62061],[-70.25534,41.62088],[-70.25519,41.62073],[-70.25595,41.62009],[-70.25554,41.61944],[-70.25558,41.61778],[-70.25923,41.61169],[-70.26074,41.61023],[-70.26256,41.61017],[-70.26624,41.60925],[-70.26674,41.60942],[-70.26831,41.61185],[-70.26825,41.61212],[-70.26783,41.61214],[-70.26823,41.61408],[-70.26881,41.61572],[-70.27032,41.61805],[-70.2694,41.62022],[-70.26936,41.62102],[-70.2697,41.62266],[-70.27041,41.62394],[-70.26932,41.62587],[-70.26865,41.62631],[-70.26857,41.62682],[-70.26784,41.62705],[-70.26741,41.62748],[-70.26785,41.62842],[-70.26662,41.62903],[-70.2667,41.62934],[-70.26587,41.62917],[-70.26509,41.62857],[-70.26595,41.62798],[-70.26662,41.62787],[-70.26706,41.62687],[-70.26763,41.62661],[-70.26762,41.62641],[-70.26692,41.62654],[-70.26589,41.62762],[-70.26434,41.62792],[-70.26139,41.62751],[-70.2597,41.6275],[-70.25925,41.62712],[-70.25906,41.62652],[-70.25964,41.62665],[-70.26002,41.62703],[-70.26073,41.62686],[-70.26093,41.62567],[-70.26212,41.62538],[-70.26271,41.62467],[-70.26543,41.62395],[-70.2665,41.62438],[-70.26762,41.6237],[-70.26751,41.62314],[-70.26711,41.62284],[-70.26591,41.62301],[-70.26591,41.62328],[-70.26548,41.62322],[-70.26421,41.62185],[-70.26327,41.62189],[-70.26202,41.62152],[-70.26077,41.62176],[-70.26015,41.62096],[-70.2603,41.62017],[-70.25974,41.6204],[-70.25932,41.62119],[-70.25957,41.62166],[-70.2603,41.6218],[-70.26046,41.62211],[-70.25887,41.6231],[-70.25972,41.6229],[-70.26021,41.62311],[-70.2603,41.62452],[-70.26012,41.62463],[-70.25975,41.62445],[-70.25967,41.62501],[-70.25897,41.62477],[-70.25878,41.62485],[-70.25906,41.62509],[-70.25804,41.62532],[-70.25769,41.62605],[-70.25787,41.62664],[-70.25731,41.62669],[-70.25687,41.62714],[-70.25719,41.62738],[-70.25764,41.62721],[-70.2577,41.62687],[-70.25846,41.62658],[-70.25852,41.62696],[-70.25713,41.62883],[-70.25721,41.62967],[-70.2551,41.63168],[-70.25294,41.63281],[-70.25249,41.63259],[-70.25192,41.63167],[-70.25207,41.6312],[-70.25302,41.63071],[-70.25413,41.62947],[-70.25352,41.62995],[-70.25343,41.62965],[-70.25302,41.62967],[-70.25295,41.62934],[-70.25186,41.62937],[-70.25143,41.62971],[-70.25141,41.63021],[-70.25025,41.63052],[-70.24675,41.63001],[-70.24412,41.63102],[-70.24489,41.63102],[-70.24515,41.63123],[-70.24562,41.63098],[-70.24677,41.63108],[-70.24716,41.63099],[-70.24729,41.63058],[-70.24755,41.63051],[-70.24917,41.63115],[-70.2514,41.63144],[-70.25184,41.63234],[-70.24956,41.63307],[-70.2483,41.63317],[-70.24858,41.63302],[-70.24824,41.6328],[-70.24496,41.63245],[-70.24452,41.63177],[-70.24355,41.63126],[-70.2416,41.6314],[-70.24191,41.63219],[-70.24122,41.63457],[-70.24057,41.63448],[-70.24055,41.63418],[-70.24024,41.63405],[-70.23985,41.63427],[-70.24002,41.63458],[-70.24116,41.63483],[-70.241,41.63561],[-70.24024,41.63542],[-70.23988,41.63579],[-70.24028,41.63598],[-70.24063,41.63573],[-70.24105,41.63577],[-70.24117,41.63768],[-70.24225,41.6397],[-70.24207,41.63957],[-70.24196,41.63976],[-70.24154,41.63918],[-70.24131,41.63919],[-70.24188,41.63974],[-70.24385,41.64099],[-70.24493,41.6411],[-70.24683,41.6405],[-70.24718,41.6402],[-70.24677,41.63922],[-70.2474,41.63961],[-70.24818,41.63943],[-70.24981,41.64044],[-70.25241,41.64327],[-70.25467,41.64484],[-70.25764,41.646],[-70.25721,41.64713],[-70.25749,41.64792],[-70.25725,41.64897],[-70.25626,41.64947],[-70.25602,41.65041],[-70.25384,41.6508],[-70.25362,41.651],[-70.25377,41.65238],[-70.25272,41.65246],[-70.25246,41.65266],[-70.25302,41.65301],[-70.25376,41.65302],[-70.25409,41.65253],[-70.25504,41.65212],[-70.25525,41.65177],[-70.25537,41.6523],[-70.25633,41.65234],[-70.25703,41.65349],[-70.25671,41.65234],[-70.25746,41.65152],[-70.25782,41.6516],[-70.25829,41.65219],[-70.25776,41.6522],[-70.25755,41.65259],[-70.25774,41.65274],[-70.25833,41.65263],[-70.2582,41.65309],[-70.25901,41.65394],[-70.25897,41.65427],[-70.25956,41.65476],[-70.25969,41.65525],[-70.26053,41.65578],[-70.26013,41.65625],[-70.2606,41.6563],[-70.26089,41.65608],[-70.25998,41.65412],[-70.26015,41.65066],[-70.25949,41.65015],[-70.25735,41.65024],[-70.25701,41.65043],[-70.25673,41.65027],[-70.25773,41.64948],[-70.25919,41.64918],[-70.25881,41.6483],[-70.25893,41.64753],[-70.25783,41.6467],[-70.25823,41.6456],[-70.25974,41.64575],[-70.26033,41.64543],[-70.26269,41.64503],[-70.26324,41.64428],[-70.26443,41.64446],[-70.2658,41.64429],[-70.2669,41.64455],[-70.26819,41.64542],[-70.26917,41.64554],[-70.26989,41.64597],[-70.27037,41.64574],[-70.27087,41.64582],[-70.27113,41.64639],[-70.27311,41.64666],[-70.27429,41.64762],[-70.27362,41.64888],[-70.2737,41.64939],[-70.25963,41.69228],[-70.26068,41.70508],[-70.26224,41.70744],[-70.26376,41.70827],[-70.26259,41.7089],[-70.26219,41.71061],[-70.26094,41.71075],[-70.26093,41.71105],[-70.25966,41.71019],[-70.26044,41.71111],[-70.25977,41.71226],[-70.25907,41.71163],[-70.25904,41.71069],[-70.25878,41.71063],[-70.25869,41.71012],[-70.25828,41.71006],[-70.25838,41.71039],[-70.25804,41.71037],[-70.25788,41.71068],[-70.25754,41.71048],[-70.25754,41.71008],[-70.25718,41.71038],[-70.25639,41.71033],[-70.25573,41.71001],[-70.25547,41.71036],[-70.25482,41.71023],[-70.2543,41.7107],[-70.25406,41.71041],[-70.25362,41.71049],[-70.25282,41.70946],[-70.25283,41.70996],[-70.25337,41.71058],[-70.25412,41.71086],[-70.25589,41.71036],[-70.25622,41.71054],[-70.25594,41.71084],[-70.25666,41.7105],[-70.25714,41.71053],[-70.25773,41.71132],[-70.25779,41.711],[-70.25849,41.71092],[-70.25928,41.71255],[-70.25889,41.71275],[-70.25961,41.71319],[-70.2579,41.71542],[-70.25565,41.71628],[-70.25509,41.71705],[-70.25428,41.71735],[-70.25374,41.71689],[-70.25271,41.71654],[-70.25291,41.7157],[-70.25394,41.71545],[-70.25433,41.71495],[-70.25427,41.7143],[-70.25369,41.71379],[-70.25285,41.71373],[-70.25169,41.71415],[-70.25017,41.71351],[-70.24941,41.7141],[-70.24906,41.71316],[-70.24859,41.713],[-70.24794,41.71363],[-70.24735,41.71335],[-70.24665,41.71343],[-70.24664,41.71416],[-70.24598,41.71401],[-70.24526,41.71437],[-70.24467,41.71393],[-70.24428,41.71421],[-70.24449,41.71437],[-70.24474,41.71409],[-70.24533,41.7146],[-70.24592,41.71417],[-70.24671,41.71432],[-70.24696,41.71398],[-70.24676,41.71354],[-70.2481,41.71377],[-70.24868,41.71319],[-70.24923,41.71431],[-70.24978,41.71429],[-70.25019,41.71384],[-70.25169,41.71449],[-70.25341,41.71421],[-70.25383,41.71445],[-70.25376,41.71484],[-70.25299,41.7149],[-70.25211,41.71573],[-70.25194,41.71708],[-70.25299,41.71879],[-70.25189,41.71969],[-70.25053,41.72],[-70.2517,41.71837],[-70.25149,41.71795],[-70.25057,41.71802],[-70.24885,41.71872],[-70.24855,41.71849],[-70.24869,41.71808],[-70.24831,41.71777],[-70.24757,41.71769],[-70.24745,41.71828],[-70.24704,41.7178],[-70.2464,41.71797],[-70.24603,41.7173],[-70.24624,41.71821],[-70.24688,41.71797],[-70.24751,41.71841],[-70.24785,41.7182],[-70.24776,41.71787],[-70.24834,41.71798],[-70.24807,41.7191],[-70.2477,41.71923],[-70.24682,41.7187],[-70.24642,41.71893],[-70.24615,41.71943],[-70.24594,41.71892],[-70.24547,41.71873],[-70.24523,41.71943],[-70.24569,41.71898],[-70.24598,41.71945],[-70.24644,41.71951],[-70.24679,41.71881],[-70.24712,41.71918],[-70.24809,41.71934],[-70.2485,41.71896],[-70.24957,41.71888],[-70.25072,41.7183],[-70.25127,41.71843],[-70.25,41.71979],[-70.25003,41.72024],[-70.25062,41.72074],[-70.25029,41.72128],[-70.24907,41.72191],[-70.24885,41.72232],[-70.24827,41.72249],[-70.24713,41.72344],[-70.24487,41.72406],[-70.24286,41.72392],[-70.24107,41.72489],[-70.2393,41.72514],[-70.23891,41.72499],[-70.23881,41.72446],[-70.23936,41.72355],[-70.23813,41.7227],[-70.23815,41.72212],[-70.23846,41.722],[-70.23928,41.72259],[-70.24065,41.72272],[-70.24111,41.72242],[-70.2393,41.72244],[-70.23896,41.7219],[-70.23838,41.72174],[-70.2379,41.72223],[-70.23787,41.72273],[-70.23895,41.72347],[-70.23903,41.72379],[-70.23862,41.72406],[-70.23733,41.72399],[-70.2363,41.7237],[-70.2359,41.72312],[-70.23611,41.72368],[-70.23554,41.72328],[-70.23494,41.72348],[-70.23465,41.72406],[-70.23314,41.72483],[-70.23218,41.72577],[-70.23197,41.72676],[-70.23123,41.72794],[-70.23037,41.72845],[-70.22888,41.728],[-70.22695,41.72607],[-70.22666,41.7255]]]]},"properties":{"name":"Yarmouth"}}]}